0 COSMOS 1823 DEB
1 18807U 87020AT  13281.02713377  .00006826  00000-0  10763-1 0  5543
2 18807 073.7978 123.3451 0325563 102.3986 047.9054 13.30946121868190
0 COSMOS 1823 DEB
1 18807U 87020AT  13283.62715587  .00000052  00000-0  81239-4 0  5573
2 18807 073.8035 119.2860 0326875 098.4023 265.4705 13.30994375868540
0 COSMOS 1823 DEB
1 18807U 87020AT  13283.62715703  .00004920  00000-0  76961-2 0  5553
2 18807 073.7998 119.2838 0328160 098.5996 265.2871 13.30980116853725
0 COSMOS 1823 DEB
1 18807U 87020AT  13285.65645044  .00003156  00000-0  49739-2 0  5551
2 18807 073.8080 116.1048 0327365 095.4380 268.4951 13.30999792868816
0 COSMOS 1823 DEB
1 18807U 87020AT  13286.96418141  .00005238  00000-0  82217-2 0  5564
2 18807 073.8027 114.0614 0328033 093.3439 054.5266 13.31011527868981
0 COSMOS 1823 DEB
1 18807U 87020AT  13288.83564988  .00005195  00000-0  81538-2 0  5571
2 18807 073.8026 111.1366 0327946 090.1451 021.9831 13.31031834869231
0 COSMOS 1823 DEB
1 18807U 87020AT  13289.66531157  .00004866  00000-0  76395-2 0  5585
2 18807 073.8026 109.8408 0327886 088.7214 037.4942 13.31039207869344
0 COSMOS 1823 DEB
1 18807U 87020AT  13294.67512445  .00003834  00000-0  60234-2 0  5591
2 18807 073.8045 102.0012 0327756 079.5430 284.0417 13.31072990870014
